OBJECT_NAME,OBJECT_ID,EPOCH,MEAN_MOTION,ECCENTRICITY,INCLINATION,RA_OF_ASC_NODE,ARG_OF_PERICENTER,MEAN_ANOMALY,EPHEMERIS_TYPE,CLASSIFICATION_TYPE,NORAD_CAT_ID,ELEMENT_SET_NO,REV_AT_EPOCH,BSTAR,MEAN_MOTION_DOT,MEAN_MOTION_DDOT
PROBA-1,2001-049B,2026-07-13T21:14:55.039200,15.07612641,.0055864,97.9605,204.3510,34.0976,326.3819,0,U,26958,999,34764,.92787E-4,.1391E-4,0
CUTE-1 (CO-55),2003-031E,2026-07-13T10:48:24.576480,14.24350896,.00108034,98.6742,202.6793,107.1223,253.1140,0,U,27844,999,19541,.8684817E-4,.157E-5,0
CUBESAT XI-IV (CO-57),2003-031J,2026-07-13T12:32:00.136320,14.23634003,.0010486,98.6773,202.4416,123.7879,236.4299,0,U,27848,999,19512,.7551E-4,.129E-5,0
APRIZESAT 4,2009-041D,2026-07-13T18:10:43.279104,14.83912595,.004213,98.1404,270.6067,234.2844,125.4446,0,U,35684,999,91530,.43447E-4,.307E-5,0
APRIZESAT 3,2009-041F,2026-07-13T09:07:21.900576,14.96307525,.00609072,98.2095,348.8641,341.9316,17.9739,0,U,35686,999,92029,.95314977E-4,.1048E-4,0
PROBA-2,2009-059B,2026-07-13T12:18:14.134176,14.54873268,.00128964,98.2458,17.5015,194.0219,166.0622,0,U,36037,999,88535,.29775958E-4,.83E-6,0
APRIZESAT 5,2011-044E,2026-07-13T18:14:33.800352,14.81126131,.0050704,98.2450,128.5549,277.4380,82.1071,0,U,37792,999,80272,.57646E-4,.397E-5,0
APRIZESAT 6,2011-044F,2026-07-13T16:53:04.884864,14.76955496,.0043182,98.2340,105.7424,3.0266,54.5582,0,U,37793,999,80106,.62464E-4,.39E-5,0
PROBA-V,2013-021A,2026-07-13T19:51:18.338112,14.23603309,.0005295,98.3605,172.1212,63.2222,296.9498,0,U,39159,999,68490,.27093E-4,.21E-6,0
APRIZESAT 7,2013-066A,2026-07-13T20:28:58.634688,14.91617545,.0037153,97.7721,147.6927,121.5967,238.8887,0,U,39416,999,68520,.4775E-4,.428E-5,0
APRIZESAT 8,2013-066K,2026-07-13T20:15:08.678880,14.87695316,.0045374,97.8230,141.9422,196.3604,163.6151,0,U,39425,999,68363,.47926E-4,.387E-5,0
BUGSAT-1 (TITA),2014-033E,2026-07-13T20:07:50.966976,15.15873446,.0029234,98.0438,288.9514,90.3909,270.0672,0,U,40014,999,65987,.17586E-3,.3324E-4,0
SAUDISAT 4,2014-033G,2026-07-13T19:58:19.983072,14.79574827,.0044367,97.7615,340.0505,348.5346,11.4852,0,U,40016,999,65001,.38468E-4,.24E-5,0
APRIZESAT 9,2014-033J,2026-07-13T19:32:08.157984,14.74251612,.0067411,97.9092,327.3664,114.2879,246.5390,0,U,40018,999,64748,.56551E-4,.335E-5,0
APRIZESAT 10,2014-033K,2026-07-13T20:40:18.480864,14.70909985,.0078645,97.9679,321.2304,187.6213,172.3805,0,U,40019,999,64617,.56227E-4,.308E-5,0
TECHDEMOSAT-1 (TDS-1),2014-037H,2026-07-13T20:50:27.122208,15.13667533,.0006766,98.3822,189.7350,162.9930,197.1526,0,U,40076,999,65226,.26877E-3,.4758E-4,0
TECHNOSAT,2017-042E,2026-07-13T09:04:23.635776,15.05104462,.00175992,97.4311,351.0449,9.3532,350.8019,0,U,42829,999,49064,.14686669E-3,.2037E-4,0
FLYING LAPTOP,2017-042G,2026-07-13T20:19:46.401312,15.01308694,.0019757,97.4792,349.3759,36.8487,323.4091,0,U,42831,999,49045,.19107E-3,.241E-4,0
HAWK-A,2018-099H,2026-07-13T17:30:03.748320,15.24952749,.0034548,97.3901,246.6217,189.1183,170.9432,0,U,43765,999,41714,.15687E-3,.39E-4,0
HAWK-B,2018-099AN,2026-07-13T17:12:20.628288,15.23104475,.0031227,97.3951,245.9686,207.3320,152.6275,0,U,43794,999,41707,.14365E-3,.336E-4,0
HAWK-C,2018-099AT,2026-07-13T17:03:21.424032,15.28475603,.0040081,97.3879,247.6475,189.0592,170.9929,0,U,43799,999,41796,.17637E-3,.4927E-4,0
SALSAT,2020-068K,2026-07-13T12:03:32.996736,15.30157505,.00089942,97.8854,199.1769,199.0888,161.0016,0,U,46495,999,31938,.15262836E-3,.4373E-4,0
HAWK-2C,2021-006CT,2026-07-13T16:29:38.082048,15.34977257,.0008639,97.2268,238.4713,105.1278,255.0922,0,U,47502,999,30356,.1183E-3,.3939E-4,0
HAWK-2A,2021-006CW,2026-07-13T16:32:51.535104,15.34992045,.0008163,97.2309,239.1669,108.4159,251.7972,0,U,47505,999,30356,.11781E-3,.3924E-4,0
HAWK-2B,2021-006CZ,2026-07-13T16:23:42.919296,15.35122316,.000869,97.2178,237.4508,106.7993,253.4205,0,U,47508,999,30356,.1329E-3,.4456E-4,0
HAWK-3B,2021-059BE,2026-07-13T12:12:26.785440,15.71758213,.00043189,97.6631,33.7494,204.4435,155.6623,0,U,48931,999,28198,.22907755E-3,.29507E-3,0
HAWK-3C,2021-059BX,2026-07-13T12:11:59.653248,15.71762993,.00046618,97.6753,39.4797,205.3009,154.8025,0,U,48948,999,28198,.22722046E-3,.29274E-3,0
HAWK-3A,2021-059CG,2026-07-13T12:11:49.937568,15.71762141,.00044695,97.6696,36.6637,207.8356,152.2667,0,U,48957,999,28198,.22247109E-3,.28655E-3,0
HAWK-5C,2022-057Y,2026-07-13T17:44:37.260960,15.52291148,.0002937,97.6607,356.1407,352.8842,7.2367,0,U,52754,999,23046,.18637E-3,.11227E-3,0
HAWK-5B,2022-057AA,2026-07-13T20:50:00.344256,15.52292068,.0003586,97.6622,354.6312,338.0104,22.0993,0,U,52756,999,23048,.18616E-3,.11215E-3,0
